{
    "links": {
        "self": "http://www.neowsapp.com/rest/v1/neo/3597094?api_key=iIulBulltgU6a56xZRHN4H3l9WmuAYTsLGpBGhQ2"
    },
    "id": "3597094",
    "neo_reference_id": "3597094",
    "name": "(2012 BQ123)",
    "designation": "2012 BQ123",
    "nasa_jpl_url": "http://ssd.jpl.nasa.gov/sbdb.cgi?sstr=3597094",
    "absolute_magnitude_h": 24.7,
    "estimated_diameter": {
        "kilometers": {
            "estimated_diameter_min": 0.0305179233,
            "estimated_diameter_max": 0.0682401509
        },
        "meters": {
            "estimated_diameter_min": 30.5179232594,
            "estimated_diameter_max": 68.2401509401
        },
        "miles": {
            "estimated_diameter_min": 0.0189629525,
            "estimated_diameter_max": 0.0424024508
        },
        "feet": {
            "estimated_diameter_min": 100.1244233463,
            "estimated_diameter_max": 223.8850168104
        }
    },
    "is_potentially_hazardous_asteroid": false,
    "close_approach_data": [
        {
            "close_approach_date": "2012-01-18",
            "close_approach_date_full": "2012-Jan-18 10:51",
            "epoch_date_close_approach": 1326883860000,
            "relative_velocity": {
                "kilometers_per_second": "18.8739413298",
                "kilometers_per_hour": "67946.1887873412",
                "miles_per_hour": "42219.1193606676"
            },
            "miss_distance": {
                "astronomical": "0.0278155863",
                "lunar": "10.8202630707",
                "kilometers": "4161152.463281181",
                "miles": "2585620.2438790578"
            },
            "orbiting_body": "Earth"
        }
    ],
    "orbital_data": {
        "orbit_id": "4",
        "orbit_determination_date": "2017-04-06 08:51:05",
        "first_observation_date": "2012-01-31",
        "last_observation_date": "2012-02-01",
        "data_arc_in_days": 1,
        "observations_used": 16,
        "orbit_uncertainty": "9",
        "minimum_orbit_intersection": ".0120141",
        "jupiter_tisserand_invariant": "3.495",
        "epoch_osculation": "2455958.5",
        "eccentricity": ".6870459546397367",
        "semi_major_axis": "2.006634722700829",
        "inclination": ".9277838655177271",
        "ascending_node_longitude": "70.4404997695281",
        "orbital_period": "1038.247541363426",
        "perihelion_distance": ".6279844540295945",
        "perihelion_argument": "325.1882084917791",
        "aphelion_distance": "3.385284991372063",
        "perihelion_time": "2455899.801388668535",
        "mean_anomaly": "20.35304610649743",
        "mean_motion": ".3467381194346469",
        "equinox": "J2000",
        "orbit_class": {
            "orbit_class_type": "APO",
            "orbit_class_description": "Near-Earth asteroid orbits which cross the Earth’s orbit similar to that of 1862 Apollo",
            "orbit_class_range": "a (semi-major axis) > 1.0 AU; q (perihelion) < 1.017 AU"
        }
    },
    "is_sentry_object": false
}